NAVSTAR 86 (USA 585)    
1 68791U 26087A   26135.46692589  .00000054  00000+0  00000+0 0  9997
2 68791  54.9660 209.0817 0004603 270.2498  61.0501  2.00570364   173
